STARLINK-1559           
1 46077U 20055BC  26068.23360559  .00042685  00000+0  14779-2 0  9995
2 46077  53.0254  76.0659 0004229  33.9710 326.1559 15.29461733309518
STARLINK-34792          
1 65085U 25167H   26068.29405525  .00036989  00000+0  12553-2 0  9991
2 65085  53.1617  28.8965 0001315 113.0373 247.0767 15.30187314 33412
